H1 CPF 01  gfz 2021 07 18 12  6992 terrasarx 
H2 0702601  6201 31698    2021 07 18 12 59 42 2021 07 23 00 00 42   120 1 1  0 0 0
H9
10 0 59415   6462.000000  0   -1193530.410   -410245.349   6761174.675
10 0 59415   6582.000000  0    -789394.564    414604.746   6819810.116
10 0 59415   6702.000000  0    -357178.820   1224903.259   6758627.608
10 0 59415   6822.000000  0      95195.008   2006090.817   6578696.249
10 0 59415   6942.000000  0     559203.459   2744254.956   6283158.568
10 0 59415   7062.000000  0    1025881.099   3426377.789   5877178.783
10 0 59415   7182.000000  0    1485992.372   4040567.939   5367858.173
10 0 59415   7302.000000  0    1930213.250   4576272.374   4764116.998
10 0 59415   7422.000000  0    2349320.183   5024464.494   4076543.783
10 0 59415   7542.000000  0    2734381.308   5377802.294   3317213.432
10 0 59415   7662.000000  0    3076946.874   5630757.262   2499479.230
10 0 59415   7782.000000  0    3369235.093   5779710.137   1637734.961
10 0 59415   7902.000000  0    3604305.676   5823004.515    747155.677
10 0 59415   8022.000000  0    3776218.356   5760962.692   -156576.108
10 0 59415   8142.000000  0    3880173.408   5595860.579  -1057555.245
10 0 59415   8262.000000  0    3912628.846   5331863.352  -1939941.811
10 0 59415   8382.000000  0    3871392.604   4974923.935  -2788247.250
10 0 59415   8502.000000  0    3755686.209   4532646.093  -3587612.105
10 0 59415   8622.000000  0    3566178.840   4014116.316  -4324068.426
10 0 59415   8742.000000  0    3304992.702   3429710.901  -4984781.688
10 0 59415   8862.000000  0    2975679.472   2790882.039  -5558270.045
10 0 59415   8982.000000  0    2583168.393   2109927.791  -6034595.310
10 0 59415   9102.000000  0    2133688.315   1399752.379  -6405524.799
10 0 59415   9222.000000  0    1634665.538    673621.209  -6664661.262
10 0 59415   9342.000000  0    1094600.968    -55083.643  -6807542.392
10 0 59415   9462.000000  0     522925.738   -773105.609  -6831710.916
10 0 59415   9582.000000  0     -70161.467  -1467549.657  -6736750.636
10 0 59415   9702.000000  0    -673871.249  -2126106.931  -6524292.142
10 0 59415   9822.000000  0   -1277014.839  -2737267.996  -6197989.429
10 0 59415   9942.000000  0   -1868206.696  -3290521.851  -5763463.418
10 0 59415  10062.000000  0   -2436074.530  -3776535.935  -5228215.008
10 0 59415  10182.000000  0   -2969475.785  -4187316.997  -4601508.232
10 0 59415  10302.000000  0   -3457716.741  -4516348.662  -3894220.680
10 0 59415  10422.000000  0   -3890768.081  -4758701.544  -3118663.887
10 0 59415  10542.000000  0   -4259473.734  -4911114.477  -2288376.109
10 0 59415  10662.000000  0   -4555747.910  -4972043.768  -1417889.229
10 0 59415  10782.000000  0   -4772754.932  -4941678.925   -522473.873
10 0 59415  10902.000000  0   -4905067.017  -4821923.910    382132.549
10 0 59415  11022.000000  0   -4948795.733  -4616343.756   1280009.863
10 0 59415  11142.000000  0   -4901692.655  -4330076.361   2155345.005
10 0 59415  11262.000000  0   -4763216.334  -3969712.039   2992719.653
10 0 59415  11382.000000  0   -4534564.623  -3543144.583   3777389.396
10 0 59415  11502.000000  0   -4218671.665  -3059397.872   4495549.348
10 0 59415  11622.000000  0   -3820168.634  -2528431.438   5134579.824
10 0 59415  11742.000000  0   -3345311.442  -1960932.060   5683266.249
10 0 59415  11862.000000  0   -2801877.901  -1368096.553   6131993.048
10 0 59415  11982.000000  0   -2199034.901   -761408.211   6472908.731
10 0 59415  12102.000000  0   -1547178.027   -152411.430   6700057.491
10 0 59415  12222.000000  0    -857748.308    447507.702   6809475.358
10 0 59415  12342.000000  0    -143031.124   1027332.583   6799254.765
10 0 59415  12462.000000  0     584062.307   1576617.842   6669575.987
10 0 59415  12582.000000  0    1310227.639   2085677.595   6422704.224
10 0 59415  12702.000000  0    2022010.037   2545756.143   6062951.692
10 0 59415  12822.000000  0    2706052.767   2949179.203   5596607.532
10 0 59415  12942.000000  0    3349349.625   3289484.775   5031834.816
10 0 59415  13062.000000  0    3939495.663   3561530.106   4378532.342
10 0 59415  13182.000000  0    4464928.842   3761571.713   3648166.626
10 0 59415  13302.000000  0    4915164.870   3887320.094   2853575.409
10 0 59415  13422.000000  0    5281012.415   3937963.285   2008739.417
10 0 59415  13542.000000  0    5554765.886   3914159.965   1128534.000
10 0 59415  13662.000000  0    5730371.034   3818002.805    228460.842
10 0 59415  13782.000000  0    5803558.240   3652951.628   -675633.689
10 0 59415  13902.000000  0    5771939.625   3423738.535  -1567846.286
10 0 59415  14022.000000  0    5635068.278   3136247.368  -2432504.607
10 0 59415  14142.000000  0    5394457.853   2797371.374  -3254448.454
10 0 59415  14262.000000  0    5053564.097   2414852.940  -4019298.836
10 0 59415  14382.000000  0    4617728.208   1997108.967  -4713711.018
10 0 59415  14502.000000  0    4094081.888   1553045.765  -5325603.372
10 0 59415  14622.000000  0    3491421.278   1091870.395  -5844359.452
10 0 59415  14742.000000  0    2820051.163    622901.804  -6261002.811
10 0 59415  14862.000000  0    2091602.487    155385.144  -6568340.879
10 0 59415  14982.000000  0    1318829.130   -301686.305  -6761077.482
10 0 59415  15102.000000  0     515386.260   -739740.137  -6835896.104
10 0 59415  15222.000000  0    -304408.552  -1150781.547  -6791509.857
10 0 59415  15342.000000  0   -1125823.902  -1527534.771  -6628680.243
10 0 59415  15462.000000  0   -1933972.951  -1863568.813  -6350206.531
10 0 59415  15582.000000  0   -2714077.524  -2153405.706  -5960882.349
10 0 59415  15702.000000  0   -3451732.641  -2392609.041  -5467421.814
10 0 59415  15822.000000  0   -4133171.165  -2577853.302  -4878356.196
10 0 59415  15942.000000  0   -4745523.543  -2706971.403  -4203897.609
10 0 59415  16062.000000  0   -5277065.683  -2778979.037  -3455772.214
10 0 59415  16182.000000  0   -5717451.478  -2794075.438  -2647024.611
10 0 59415  16302.000000  0   -6057923.895  -2753619.618  -1791794.923
10 0 59415  16422.000000  0   -6291498.722  -2660082.696   -905072.652
10 0 59415  16542.000000  0   -6413116.532  -2516976.592     -2431.111
10 0 59415  16662.000000  0   -6419757.902  -2328760.579    900251.824
10 0 59415  16782.000000  0   -6310519.085  -2100727.851   1787081.670
10 0 59415  16902.000000  0   -6086643.430  -1838874.833   2642437.264
10 0 59415  17022.000000  0   -5751509.216  -1549756.646   3451253.732
10 0 59415  17142.000000  0   -5310575.699  -1240332.613   4199295.557
10 0 59415  17262.000000  0   -4771284.754   -917805.216   4873411.553
10 0 59415  17382.000000  0   -4142926.016   -589457.950   5461764.955
10 0 59415  17502.000000  0   -3436468.999   -262495.442   5954039.568
10 0 59415  17622.000000  0   -2664362.792     56111.691   6341617.162
10 0 59415  17742.000000  0   -1840309.102    359772.345   6617722.285
10 0 59415  17862.000000  0    -979014.252    642407.739   6777534.325
10 0 59415  17982.000000  0     -95924.812    898571.187   6818266.019
10 0 59415  18102.000000  0     793049.085   1123551.726   6739208.439
10 0 59415  18222.000000  0    1671819.242   1313460.608   6541742.656
10 0 59415  18342.000000  0    2524409.576   1465298.862   6229316.908
10 0 59415  18462.000000  0    3335246.306   1577004.605   5807390.756
10 0 59415  18582.000000  0    4089445.118   1647479.762   5283345.053
10 0 59415  18702.000000  0    4773087.305   1676595.774   4666358.519
10 0 59415  18822.000000  0    5373483.317   1665179.081   3967254.772
10 0 59415  18942.000000  0    5879419.176   1614975.185   3198315.344
10 0 59415  19062.000000  0    6281373.830   1528592.294   2373063.595
10 0 59415  19182.000000  0    6571708.149   1409425.096   1506026.394
10 0 59415  19302.000000  0    6744818.138   1261561.522    612472.656
10 0 59415  19422.000000  0    6797247.947   1089674.223   -291862.356
10 0 59415  19542.000000  0    6727760.981    898899.359  -1191063.513
10 0 59415  19662.000000  0    6537364.012    694705.257  -2069324.769
10 0 59415  19782.000000  0    6229287.514    482754.666  -2911233.692
10 0 59415  19902.000000  0    5808921.865    268765.276  -3702047.090
10 0 59415  20022.000000  0    5283711.484     58371.308  -4427951.547
10 0 59415  20142.000000  0    4663008.983   -143010.398  -5076302.524
10 0 59415  20262.000000  0    3957896.450   -330306.154  -5635837.449
10 0 59415  20382.000000  0    3180978.669   -498900.755  -6096862.802
10 0 59415  20502.000000  0    2346150.506   -644740.583  -6451412.296
10 0 59415  20622.000000  0    1468344.735   -764421.478  -6693372.144
10 0 59415  20742.000000  0     563266.640   -855261.414  -6818576.468
10 0 59415  20862.000000  0    -352883.771   -915355.623  -6824871.706
10 0 59415  20982.000000  0   -1263695.211   -943613.803  -6712148.751
10 0 59415  21102.000000  0   -2152832.304   -939779.409  -6482345.302
10 0 59415  21222.000000  0   -3004322.314   -904430.189  -6139415.041
10 0 59415  21342.000000  0   -3802835.406   -838960.591  -5689266.874
10 0 59415  21462.000000  0   -4533959.520   -745546.088  -5139674.894
10 0 59415  21582.000000  0   -5184463.035   -627089.379  -4500154.999
10 0 59415  21702.000000  0   -5742539.893   -487150.161  -3781811.679
10 0 59415  21822.000000  0   -6198034.259   -329858.904  -2997154.960
10 0 59415  21942.000000  0   -6542637.258   -159815.696  -2159888.504
10 0 59415  22062.000000  0   -6770052.006     18022.470  -1284673.636
10 0 59415  22182.000000  0   -6876122.554    198465.290   -386870.658
10 0 59415  22302.000000  0   -6858918.711    376219.063    517737.455
10 0 59415  22422.000000  0   -6718776.970    546020.318   1413228.808
10 0 59415  22542.000000  0   -6458297.683    702769.274   2283831.378
10 0 59415  22662.000000  0   -6082295.846    841659.956   3114210.329
10 0 59415  22782.000000  0   -5597706.361    958303.616   3889746.403
10 0 59415  22902.000000  0   -5013447.105   1048842.052   4596798.269
99
